{
    "CCSDS_OMM_VERS": "3.0",
    "COMMENT": "GENERATED VIA SPACE-TRACK.ORG API",
    "CREATION_DATE": "2025-05-23T14:56:28",
    "ORIGINATOR": "18 SPCS",
    "OBJECT_NAME": "BD-21",
    "OBJECT_ID": "2016-006A",
    "CENTER_NAME": "EARTH",
    "REF_FRAME": "TEME",
    "TIME_SYSTEM": "UTC",
    "MEAN_ELEMENT_THEORY": "SGP4",
    "EPOCH": "2025-05-23T04:52:01.219296",
    "MEAN_MOTION": "1.86231004",
    "ECCENTRICITY": "0.00044260",
    "INCLINATION": "56.3643",
    "RA_OF_ASC_NODE": "76.5127",
    "ARG_OF_PERICENTER": "297.9280",
    "MEAN_ANOMALY": "62.0044",
    "EPHEMERIS_TYPE": "0",
    "CLASSIFICATION_TYPE": "U",
    "NORAD_CAT_ID": "41315",
    "ELEMENT_SET_NO": "999",
    "REV_AT_EPOCH": "6333",
    "BSTAR": "0.00000000000000",
    "MEAN_MOTION_DOT": "-0.00000026",
    "MEAN_MOTION_DDOT": "0.0000000000000",
    "SEMIMAJOR_AXIS": "27906.188",
    "PERIOD": "773.233",
    "APOAPSIS": "21540.404",
    "PERIAPSIS": "21515.702",
    "OBJECT_TYPE": "PAYLOAD",
    "RCS_SIZE": "LARGE",
    "COUNTRY_CODE": "PRC",
    "LAUNCH_DATE": "2016-02-01",
    "SITE": "XSC",
    "DECAY_DATE": null,
    "FILE": "4737030",
    "GP_ID": "288176411",
    "TLE_LINE0": "0 BD-21",
    "TLE_LINE1": "1 41315U 16006A   25143.20279189 -.00000026  00000-0  00000+0 0  9998",
    "TLE_LINE2": "2 41315  56.3643  76.5127 0004426 297.9280  62.0044  1.86231004 63330"
}